[{"OBJECT_NAME":"STARLINK-6056","OBJECT_ID":"2023-078AY","EPOCH":"2026-03-09T22:48:38.550816","MEAN_MOTION":14.98319506,"ECCENTRICITY":0.00026172,"INCLINATION":70.0016,"RA_OF_ASC_NODE":343.6264,"ARG_OF_PERICENTER":258.7563,"MEAN_ANOMALY":101.3302,"EPHEMERIS_TYPE":0,"CLASSIFICATION_TYPE":"U","NORAD_CAT_ID":56813,"ELEMENT_SET_NO":999,"REV_AT_EPOCH":15272,"BSTAR":7.2557614e-5,"MEAN_MOTION_DOT":7.73e-6,"MEAN_MOTION_DDOT":0},{"OBJECT_NAME":"KUIPER-00106","OBJECT_ID":"2025-171N","EPOCH":"2026-03-09T10:38:15.017568","MEAN_MOTION":14.97188469,"ECCENTRICITY":0.00079317,"INCLINATION":51.8933,"RA_OF_ASC_NODE":156.0933,"ARG_OF_PERICENTER":97.4823,"MEAN_ANOMALY":262.7049,"EPHEMERIS_TYPE":0,"CLASSIFICATION_TYPE":"U","NORAD_CAT_ID":65144,"ELEMENT_SET_NO":999,"REV_AT_EPOCH":3290,"BSTAR":0.00038673669,"MEAN_MOTION_DOT":4.265e-5,"MEAN_MOTION_DDOT":0}]
